              TDR Cartesian                         TDR Cartesian  
    -----------------------------------       --------------------------------
     X    =        7079006.81                 X    =         2157681.27
     Y    =      -20648544.13  feet           Y    =        -6293676.25  meter
     Z    =       -4329746.49                 Z    =        -1319706.73
     XDOT =      14768.679403                 XDOT =        4501.493482
     YDOT =       1077.376166  feet/sec       YDOT =         328.384255  meter/sec
     ZDOT =      19121.267592                 ZDOT =        5828.162362
  
  
    The mean element set is posted at the UTC for which position is
    just north of the next ascending node relative to the above
    vector time
 
 
    TWO LINE MEAN ELEMENT SET
  
    ISS
    1 25544U 98067A   16097.78242951  .00016717  00000-0  10270-3 0  9075
    2 25544  51.6418  54.1802 0002676  27.1887 332.9405 15.54352247 33876
  
  
    Satellite: ISS
    Catalog Number: 25544
    Epoch time:      16097.78242951   =   yrday.fracday
    Element set:     907
    Inclination:       51.6418  deg
    RA of node:        54.1802  deg
    Eccentricity:     .0002676     
    Arg of perigee:    27.1887  deg
    Mean anomaly:     332.9405  deg
    Mean motion:   15.54352247  rev/day
    Decay rate:    1.67170E-04  rev/day^2
    Epoch rev:            3387
    Checksum:              325
 
 
    Coasting Arc #9 (Orbit 3400)
    ---------------------------------------
 
    Vector Time (GMT): 2016/098/16:00:00.000
    Vector Time (MET): N/A
    Weight (LBS)     : 922235.5
 
              M50 Cartesian                         M50 Keplerian  
    -----------------------------------       --------------------------------
     X    =        3245520.72                 A    =         6776593.18  meter
     Y    =       -2648163.48  meter          E    =           .0016408
     Z    =       -5340915.30                 I    =           51.90527
     XDOT =       4946.175035                 Wp   =           83.00677
     YDOT =       5844.021834  meter/sec      RA   =           49.10968  deg
     ZDOT =        110.265348                 TA   =          188.02856
                                              MA   =          188.05485
                                              Ha   =            221.241  n.mi
                                              Hp   =            213.795
 
              M50 Cartesian                         J2K Cartesian  
    -----------------------------------       --------------------------------
     X    =       10648033.86                 X    =         3300836.12
     Y    =       -8688200.40  feet           Y    =        -2611561.32  meter
     Z    =      -17522687.99                 Z    =        -5325014.48
     XDOT =      16227.608384                 XDOT =        4879.922488
     YDOT =      19173.299980  feet/sec       YDOT =        5898.962828  meter/sec
     ZDOT =        361.762953                 ZDOT =         134.131242
 
              TDR Cartesian                         TDR Cartesian  
    -----------------------------------       --------------------------------
     X    =       -5720253.64                 X    =        -1743533.31
     Y    =      -12592807.53  feet           Y    =        -3838287.74  meter
     Z    =      -17453078.31                 Z    =        -5319698.27
     XDOT =      21705.453884                 XDOT =        6615.822344
     YDOT =     -10493.074046  feet/sec       YDOT =       -3198.288969  meter/sec
     ZDOT =        464.386185                 ZDOT =         141.544909
  
  
    The mean element set is posted at the UTC for which position is
    just north of the next ascending node relative to the above
    vector time
 
 
    TWO LINE MEAN ELEMENT SET
  
    ISS
    1 25544U 98067A   16098.68251913  .00016717  00000-0  10270-3 0  9084
    2 25544  51.6438  49.6933 0002619  33.1149 327.0167 15.54393259 34012
  
  
    Satellite: ISS
    Catalog Number: 25544
    Epoch time:      16098.68251913   =   yrday.fracday
    Element set:     908
    Inclination:       51.6438  deg
    RA of node:        49.6933  deg
    Eccentricity:     .0002619     
    Arg of perigee:    33.1149  deg
    Mean anomaly:     327.0167  deg
    Mean motion:   15.54393259  rev/day
    Decay rate:    1.67170E-04  rev/day^2
    Epoch rev:            3401
    Checksum:              320
 
 
    Coasting Arc #10 (Orbit 3416)
    ---------------------------------------
 
    Vector Time (GMT): 2016/099/16:00:00.000
    Vector Time (MET): N/A
    Weight (LBS)     : 922235.5
 
              M50 Cartesian                         M50 Keplerian  
    -----------------------------------       --------------------------------
     X    =       -4435875.77                 A    =         6777973.14  meter
     Y    =        1150437.75  meter          E    =           .0008666
     Z    =        4990126.42                 I    =           51.88955
     XDOT =      -3999.238041                 Wp   =           49.93432
     YDOT =      -6194.676870  meter/sec      RA   =           44.12612  deg
     ZDOT =      -2119.041654                 TA   =           60.66000
                                              MA   =           60.57347
                                              Ha   =            221.289  n.mi
                                              Hp   =            213.644
 
              M50 Cartesian                         J2K Cartesian  
    -----------------------------------       --------------------------------
     X    =      -14553398.20                 X    =        -4472650.82
     Y    =        3774402.07  feet           Y    =         1100627.76  meter
     Z    =       16371805.85                 Z    =         4968488.27
     XDOT =     -13120.859716                 XDOT =       -3919.376839
     YDOT =     -20323.743012  feet/sec       YDOT =       -6238.952712  meter/sec
     ZDOT =      -6952.236398                 ZDOT =       -2138.274590
 
              TDR Cartesian                         TDR Cartesian  
    -----------------------------------       --------------------------------
     X    =         247597.81                 X    =           75467.81
     Y    =       15134852.19  feet           Y    =         4613102.95  meter
     Z    =       16277545.31                 Z    =         4961395.81
     XDOT =     -21712.721208                 XDOT =       -6618.037424
     YDOT =       7948.881800  feet/sec       YDOT =        2422.819172  meter/sec
     ZDOT =      -7034.640214                 ZDOT =       -2144.158337
  
  
    The mean element set is posted at the UTC for which position is
    just north of the next ascending node relative to the above
    vector time
 
 
    TWO LINE MEAN ELEMENT SET
  
    ISS
    1 25544U 98067A   16099.71118275  .00016717  00000-0  10270-3 0  9093
    2 25544  51.6447  44.5639 0002563  33.1641 326.9672 15.54437228 34175
  
  
    Satellite: ISS
    Catalog Number: 25544
    Epoch time:      16099.71118275   =   yrday.fracday
    Element set:     909
    Inclination:       51.6447  deg
    RA of node:        44.5639  deg
    Eccentricity:     .0002563     
    Arg of perigee:    33.1641  deg
    Mean anomaly:     326.9672  deg
    Mean motion:   15.54437228  rev/day
    Decay rate:    1.67170E-04  rev/day^2
    Epoch rev:            3417
    Checksum:              322
 
 
    Coasting Arc #11 (Orbit 3431)
    ---------------------------------------
 
    Vector Time (GMT): 2016/100/16:00:00.000
    Vector Time (MET): N/A
    Weight (LBS)     : 922235.5
 
              M50 Cartesian                         M50 Keplerian  
    -----------------------------------       --------------------------------
     X    =        5406890.89                 A    =         6781549.79  meter
     Y    =         260612.52  meter          E    =           .0008429
     Z    =       -4092327.50                 I    =           51.87727
     XDOT =       2633.954396                 Wp   =           90.80395
     YDOT =       6063.255402  meter/sec      RA   =           39.14822  deg
     ZDOT =       3872.942355                 TA   =          219.14883
                                              MA   =          219.20984
                                              Ha   =            221.311  n.mi
                                              Hp   =            213.727
 
              M50 Cartesian                         J2K Cartesian  
    -----------------------------------       --------------------------------
     X    =       17739143.35                 X    =         5423453.88
     Y    =         855027.95  feet           Y    =          321168.23  meter
     Z    =      -13426271.33                 Z    =        -4066021.57
     XDOT =       8641.582663                 XDOT =        2547.144425
     YDOT =      19892.570216  feet/sec       YDOT =        6092.224977  meter/sec
     ZDOT =      12706.503790                 ZDOT =        3885.526273
 
              TDR Cartesian                         TDR Cartesian  
    -----------------------------------       --------------------------------
     X    =        4698259.78                 X    =         1432029.58
     Y    =      -17215983.49  feet           Y    =        -5247431.77  meter
     Z    =      -13311998.67                 Z    =        -4057497.19
     XDOT =      20020.958885                 XDOT =        6102.388268
     YDOT =      -4385.443535  feet/sec       YDOT =       -1336.683190  meter/sec
     ZDOT =      12760.020804                 ZDOT =        3889.254341
  
  
    The mean element set is posted at the UTC for which position is
    just north of the next ascending node relative to the above
    vector time
 
 
    TWO LINE MEAN ELEMENT SET
  
    ISS
    1 25544U 98067A   16100.67554908  .00016717  00000-0  10270-3 0  9100
    2 25544  51.6445  39.7549 0002637  37.3000 322.8335 15.54404760 34329
  
